ONEWEB-0153             
1 48044U 21025C   23275.60818870 -.00000022  00000+0 -95346-4 0  9993
2 48044  87.9053 156.9162 0001667  71.6727 288.4584 13.13468004123773
ONEWEB-0154             
1 48045U 21025D   23275.75841453  .00000070  00000+0  15578-3 0  9992
2 48045  87.9059 156.8969 0001785  73.0691 287.0634 13.13468236123757
ONEWEB-0116             
1 48046U 21025E   23275.64839387  .00000057  00000+0  12231-3 0  9992
2 48046  87.9051 156.8884 0002041  80.3502 279.7858 13.13470906123881
ONEWEB-0150             
1 48047U 21025F   23275.62087801 -.00000315  00000+0 -89675-3 0  9992
2 48047  87.9056 156.9185 0001583  75.1596 284.9708 13.13469017123778
ONEWEB-0107             
1 48048U 21025G   23275.62297901 -.00000306  00000+0 -87320-3 0  9992
2 48048  87.9057 156.9165 0001341  73.0895 287.0381 13.13467980123755
ONEWEB-0101             
1 48049U 21025H   23275.73937223  .00000314  00000+0  82360-3 0  9999
2 48049  87.9054 156.9028 0001754  68.6657 291.4659 13.13473416123742
ONEWEB-0113             
1 48050U 21025J   23275.63992410 -.00000136  00000+0 -40781-3 0  9994
2 48050  87.8996 156.9393 0001904  75.3269 284.8071 13.13468758123819
ONEWEB-0112             
1 48051U 21025K   23275.70340237 -.00000347  00000+0 -98519-3 0  9993
2 48051  87.9057 156.8987 0001695  77.2593 282.8725 13.13472342123835
